STARLINK-3151
1 29408C 21104A   21325.19174412 -.00859984  00000-0 -29126-2 0  3255
2 29408  53.2175  95.6746 0033345  64.3103 161.3726 15.89066420    10
